COSMOS 2588             
1 64095U 25109A   26068.81179522  .00009169  00000+0  32611-3 0  9998
2 64095  72.9704  73.5401 0005019 308.6780  51.3966 15.29122656 44425
STARLINK-36094          
1 66851U 25281D   26068.14752402  .00039027  00000+0  14207-2 0  9997
2 66851  43.0032 346.4497 0001549 260.6256  99.4420 15.27569557 16101
